city_url,province,city,brand,dlrid,shortname,400phone,address,url,updatetime
https://dealer.autohome.com.cn/zhanjiang/0/62/0/0/1/0/0/0.html,广东,湛江,东风悦达起亚,66442,湛江金富东森起亚4S店,400-866-2445,湛江市赤坎区双港路15号（湛江市赤坎区双港路15号（海田车站往广州方向800米左侧）,https://dealer.autohome.com.cn/66442/#pvareaid=2113601,2020-02-20 16:55:26
https://dealer.autohome.com.cn/zhangzhou/0/62/0/0/1/0/0/0.html,福建,漳州,东风悦达起亚,10125,漳州南龙汽车,400-868-6130,漳州市龙文区迎宾大道云洞岩路口西侧200米处,https://dealer.autohome.com.cn/10125/#pvareaid=2113601,2020-02-20 16:55:27
https://dealer.autohome.com.cn/zhuhai/0/62/0/0/1/0/0/0.html,广东,珠海,东风悦达起亚,66443,珠海广大昌汽车,400-830-6949,上冲外国际车城南溪对面,https://dealer.autohome.com.cn/66443/#pvareaid=2113601,2020-02-20 16:55:27
https://dealer.autohome.com.cn/xiamen/0/62/0/0/1/0/0/0.html,福建,厦门,东风悦达起亚,2016913,厦门华骏起亚,400-868-3630,厦门市海沧区坪埕东路39号,https://dealer.autohome.com.cn/2016913/#pvareaid=2113601,2020-02-20 16:55:27
https://dealer.autohome.com.cn/shenzhen/0/62/0/0/1/0/0/0.html,广东,深圳,东风悦达起亚,2103624,深圳九意起亚4S店,400-860-1294,横岗信义汽车城29A东风悦达起亚,https://dealer.autohome.com.cn/2103624/#pvareaid=2113601,2020-02-20 16:55:27
https://dealer.autohome.com.cn/shenzhen/0/62/0/0/1/0/0/0.html,广东,深圳,东风悦达起亚,129171,深圳润朋起亚,400-868-6052,深圳市宝安区福永街道怀德南路2号（东方国际车城内）,https://dealer.autohome.com.cn/129171/#pvareaid=2113601,2020-02-20 16:55:27
https://dealer.autohome.com.cn/shenzhen/0/62/0/0/1/0/0/0.html,广东,深圳,东风悦达起亚,1059,深圳汇天源,400-868-3957,深圳市福田区红荔西路联合华鹏汽车广场B2-2A,https://dealer.autohome.com.cn/1059/#pvareaid=2113601,2020-02-20 16:55:27
https://dealer.autohome.com.cn/quanzhou/0/62/0/0/1/0/0/0.html,福建,泉州,东风悦达起亚,2100698,丰瑞起亚4S店,400-868-3002,福建省泉州市鲤城区常泰路60号,https://dealer.autohome.com.cn/2100698/#pvareaid=2113601,2020-02-20 16:55:27
https://dealer.autohome.com.cn/quanzhou/0/62/0/0/1/0/0/0.html,福建,泉州,东风悦达起亚,10123,泉州汇京起亚,400-897-2433,泉州市清濛开发区南迎宾大道泉三高速泉州南出口（往市区方向100米）,https://dealer.autohome.com.cn/10123/#pvareaid=2113601,2020-02-20 16:55:27
https://dealer.autohome.com.cn/quanzhou/0/62/0/0/1/0/0/0.html,福建,泉州,东风悦达起亚,63115,泉州亿海起亚4S店,400-868-7116,晋江五里工业区社马路段（季延中学往马坪方向2公里）,https://dealer.autohome.com.cn/63115/#pvareaid=2113601,2020-02-20 16:55:27
https://dealer.autohome.com.cn/jiangmen/0/62/0/0/1/0/0/0.html,广东,江门,东风悦达起亚,2078455,江门永濠起亚,400-830-3728,江门市蓬江区华鸿汽车城11栋,https://dealer.autohome.com.cn/2078455/#pvareaid=2113601,2020-02-20 16:55:27
https://dealer.autohome.com.cn/su_zhou/0/62/0/0/1/0/0/0.html,安徽,宿州,东风悦达起亚,2029903,宿州市亿之豪,400-997-3414,安徽省宿州市埇桥区循环经济示范园仁和路东侧1000米,https://dealer.autohome.com.cn/2029903/#pvareaid=2113601,2020-02-20 16:55:27
https://dealer.autohome.com.cn/guangzhou/0/62/0/0/1/0/0/0.html,广东,广州,东风悦达起亚,2077048,广州骅亚,400-897-2061,广州市天河区黄埔大道东255号,https://dealer.autohome.com.cn/2077048/#pvareaid=2113601,2020-02-20 16:55:27
https://dealer.autohome.com.cn/guangzhou/0/62/0/0/1/0/0/0.html,广东,广州,东风悦达起亚,2103658,广州枫兴起亚,400-868-0297,广州市白云区广从一路162号枫兴汽车城内,https://dealer.autohome.com.cn/2103658/#pvareaid=2113601,2020-02-20 16:55:27
https://dealer.autohome.com.cn/guangzhou/0/62/0/0/1/0/0/0.html,广东,广州,东风悦达起亚,2030263,广州悦达汇创,400-872-7639,广州市白云区鹤边街鹤龙路85号院内（三南加油站隔壁）,https://dealer.autohome.com.cn/2030263/#pvareaid=2113601,2020-02-20 16:55:27
https://dealer.autohome.com.cn/guangzhou/0/62/0/0/1/0/0/0.html,广东,广州,东风悦达起亚,101946,广州起悦,400-830-0437,广州市花都区狮岭镇建设北路238号,https://dealer.autohome.com.cn/101946/#pvareaid=2113601,2020-02-20 16:55:27
https://dealer.autohome.com.cn/guangzhou/0/62/0/0/1/0/0/0.html,广东,广州,东风悦达起亚,2029919,广州胜亚专营店,400-866-1094,广东省广州市番禺区番禺迎宾大道华南碧桂园南800米（瑞华汽车城内）,https://dealer.autohome.com.cn/2029919/#pvareaid=2113601,2020-02-20 16:55:27
https://dealer.autohome.com.cn/guangzhou/0/62/0/0/1/0/0/0.html,广东,广州,东风悦达起亚,2017720,广州新宏盛起亚4S店,400-872-2064,新塘镇南安村广深公路南安路段,https://dealer.autohome.com.cn/2017720/#pvareaid=2113601,2020-02-20 16:55:27
https://dealer.autohome.com.cn/fuzhou/0/62/0/0/1/0/0/0.html,福建,福州,东风悦达起亚,2095140,宇翔起亚,400-961-2867,福州市仓山区科技园六区116号（叶下片）,https://dealer.autohome.com.cn/2095140/#pvareaid=2113601,2020-02-20 16:55:27
https://dealer.autohome.com.cn/fuzhou/0/62/0/0/1/0/0/0.html,福建,福州,东风悦达起亚,2024215,福州华骏凯宏起亚,400-866-2105,福州市马尾区快安兴业路160号,https://dealer.autohome.com.cn/2024215/#pvareaid=2113601,2020-02-20 16:55:27
https://dealer.autohome.com.cn/fuzhou/0/62/0/0/1/0/0/0.html,福建,福州,东风悦达起亚,4249,福州金洋,400-897-0834,福州市五四北路秀峰路（山姆小镇对面）,https://dealer.autohome.com.cn/4249/#pvareaid=2113601,2020-02-20 16:55:27
https://dealer.autohome.com.cn/fu_yang/0/62/0/0/1/0/0/0.html,安徽,阜阳,东风悦达起亚,126122,阜阳市雪峰起亚汽车,400-868-1803,阜阳市经济技术开发区纬五路北侧,https://dealer.autohome.com.cn/126122/#pvareaid=2113601,2020-02-20 16:55:27
https://dealer.autohome.com.cn/maanshan/0/62/0/0/1/0/0/0.html,安徽,马鞍山,东风悦达起亚,75993,马鞍山同利起亚,400-830-5422,安徽省马鞍山市当涂经济开发区红旗南路汽车4S园,https://dealer.autohome.com.cn/75993/#pvareaid=2113601,2020-02-20 16:55:27
https://dealer.autohome.com.cn/anqing/0/62/0/0/1/0/0/0.html,安徽,安庆,东风悦达起亚,126861,安庆鑫马起亚4S店,400-866-1796,安庆市开发区中兴大道,https://dealer.autohome.com.cn/126861/#pvareaid=2113601,2020-02-20 16:55:27
https://dealer.autohome.com.cn/wuhu/0/62/0/0/1/0/0/0.html,安徽,芜湖,东风悦达起亚,122997,芜湖顺易起亚,400-860-1540,芜湖市高新开发区长江南路86号,https://dealer.autohome.com.cn/122997/#pvareaid=2113601,2020-02-20 16:55:27
https://dealer.autohome.com.cn/taizhou/0/62/0/0/1/0/0/0.html,浙江,台州,东风悦达起亚,124435,台州金泰,400-872-5516,浙江省台州黄岩北城街道五里牌村（永宁江大桥往北200米）,https://dealer.autohome.com.cn/124435/#pvareaid=2113601,2020-02-20 16:55:27
https://dealer.autohome.com.cn/bangbu/0/62/0/0/1/0/0/0.html,安徽,蚌埠,东风悦达起亚,119831,蚌埠润悦通亚,400-830-5961,蚌埠市怀远经济开发区,https://dealer.autohome.com.cn/119831/#pvareaid=2113601,2020-02-20 16:55:27
https://dealer.autohome.com.cn/bangbu/0/62/0/0/1/0/0/0.html,安徽,蚌埠,东风悦达起亚,2018445,蚌埠福顺,400-868-9617,迎宾大道西侧金和路15号,https://dealer.autohome.com.cn/2018445/#pvareaid=2113601,2020-02-20 16:55:27
https://dealer.autohome.com.cn/jiaxing/0/62/0/0/1/0/0/0.html,浙江,嘉兴,东风悦达起亚,124484,嘉善亚升汽车,400-868-4677,浙江省嘉兴市嘉善县外环东路1058号（320国道与木业大道东交叉口向东300米）,https://dealer.autohome.com.cn/124484/#pvareaid=2113601,2020-02-20 16:55:27
https://dealer.autohome.com.cn/jiaxing/0/62/0/0/1/0/0/0.html,浙江,嘉兴,东风悦达起亚,66792,浙江华隆汽车,400-868-0548,浙江省桐乡市振东汽车商贸园一区2号,https://dealer.autohome.com.cn/66792/#pvareaid=2113601,2020-02-20 16:55:27
https://dealer.autohome.com.cn/shaoxing/0/62/0/0/1/0/0/0.html,浙江,绍兴,东风悦达起亚,2078541,柯桥悦泰,400-897-0485,绍兴市柯桥区金柯桥大道2687号西区第一栋,https://dealer.autohome.com.cn/2078541/#pvareaid=2113601,2020-02-20 16:55:27
https://dealer.autohome.com.cn/jinhua/0/62/0/0/1/0/0/0.html,浙江,金华,东风悦达起亚,2080368,东阳悦辰起亚4S店,400-868-3826,浙江省东阳市白云街道西城工业区佳轮路1号A幢,https://dealer.autohome.com.cn/2080368/#pvareaid=2113601,2020-02-20 16:55:27
https://dealer.autohome.com.cn/jinhua/0/62/0/0/1/0/0/0.html,浙江,金华,东风悦达起亚,2095650,起亚义乌鑫元4S店,400-872-7753,义乌市后宅街道净居西路333号,https://dealer.autohome.com.cn/2095650/#pvareaid=2113601,2020-02-20 16:55:27
https://dealer.autohome.com.cn/quzhou/0/62/0/0/1/0/0/0.html,浙江,衢州,东风悦达起亚,2078703,衢州悦亚汽车,400-868-6845,浙西大道103号,https://dealer.autohome.com.cn/2078703/#pvareaid=2113601,2020-02-20 16:55:27
https://dealer.autohome.com.cn/hangzhou/0/62/0/0/1/0/0/0.html,浙江,杭州,东风悦达起亚,3569,杭州德龙起亚4S店,400-872-3209,杭州市萧山区市民办事中心北侧（2号地铁南端振宁路A出口下）,https://dealer.autohome.com.cn/3569/#pvareaid=2113601,2020-02-20 16:55:27
https://dealer.autohome.com.cn/hefei/0/62/0/0/1/0/0/0.html,安徽,合肥,东风悦达起亚,119147,安徽悦莱起亚4S店,400-868-4146,高新区长江西路和长宁大道交叉口汽车城内，面向磨子潭路,https://dealer.autohome.com.cn/119147/#pvareaid=2113601,2020-02-20 16:55:27
https://dealer.autohome.com.cn/hefei/0/62/0/0/1/0/0/0.html,安徽,合肥,东风悦达起亚,7248,安天迪凯起亚4S店,400-830-2784,合肥市包河汽车城长白山路与纬一路交叉口,https://dealer.autohome.com.cn/7248/#pvareaid=2113601,2020-02-20 16:55:27
https://dealer.autohome.com.cn/wenzhou/0/62/0/0/1/0/0/0.html,浙江,温州,东风悦达起亚,2026456,温州红通起亚4S店,400-872-5587,乐清市宁康东路557号,https://dealer.autohome.com.cn/2026456/#pvareaid=2113601,2020-02-20 16:55:27
https://dealer.autohome.com.cn/wenzhou/0/62/0/0/1/0/0/0.html,浙江,温州,东风悦达起亚,110403,温州佳鑫起亚店,400-868-1132,温州市温州大道829号,https://dealer.autohome.com.cn/110403/#pvareaid=2113601,2020-02-20 16:55:27
https://dealer.autohome.com.cn/wenzhou/0/62/0/0/1/0/0/0.html,浙江,温州,东风悦达起亚,85491,温州冠特起亚工厂授权店,400-868-3257,温州市瓯海大道428号（潘凤车立方往前200米娄桥方向）,https://dealer.autohome.com.cn/85491/#pvareaid=2113601,2020-02-20 16:55:27
https://dealer.autohome.com.cn/wenzhou/0/62/0/0/1/0/0/0.html,浙江,温州,东风悦达起亚,70394,苍南冠亚店,400-868-1996,苍南县灵溪镇建兴东路（浙闽物流中心对面）,https://dealer.autohome.com.cn/70394/#pvareaid=2113601,2020-02-20 16:55:27
https://dealer.autohome.com.cn/ningbo/0/62/0/0/1/0/0/0.html,浙江,宁波,东风悦达起亚,67784,余姚东悦,400-860-2044,余姚市凤山街道同光村（61省道）,https://dealer.autohome.com.cn/67784/#pvareaid=2113601,2020-02-20 16:55:27
https://dealer.autohome.com.cn/ningbo/0/62/0/0/1/0/0/0.html,浙江,宁波,东风悦达起亚,2021660,宁波大港启航起亚,400-868-3754,北仑区新碶街道明州西路555号1幢1号－1,https://dealer.autohome.com.cn/2021660/#pvareaid=2113601,2020-02-20 16:55:27
https://dealer.autohome.com.cn/ningbo/0/62/0/0/1/0/0/0.html,浙江,宁波,东风悦达起亚,4896,天天汽车贸易,400-868-4015,宁波市海曙区顺德路78弄78号,https://dealer.autohome.com.cn/4896/#pvareaid=2113601,2020-02-20 16:55:28
https://dealer.autohome.com.cn/qujing/0/62/0/0/1/0/0/0.html,云南,曲靖,东风悦达起亚,7276,曲靖谊和汽车,400-872-4664,云南省曲靖市麒麟区子午路（中央商务区）,https://dealer.autohome.com.cn/7276/#pvareaid=2113601,2020-02-20 16:55:28
https://dealer.autohome.com.cn/honghe/0/62/0/0/1/0/0/0.html,云南,红河,东风悦达起亚,13628,云南红河诚达,400-872-8973,蒙自市惠民路新世纪汽车城F幢（蒙自二小对面）,https://dealer.autohome.com.cn/13628/#pvareaid=2113601,2020-02-20 16:55:28
https://dealer.autohome.com.cn/yuxi/0/62/0/0/1/0/0/0.html,云南,玉溪,东风悦达起亚,7275,玉溪诚达汽车,400-860-2032,玉溪市红塔区太极路103号（亚太斜对面）,https://dealer.autohome.com.cn/7275/#pvareaid=2113601,2020-02-20 16:55:28
https://dealer.autohome.com.cn/zhaotong/0/62/0/0/1/0/0/0.html,云南,昭通,东风悦达起亚,82161,昭通滇东北,400-930-4322,昭通市昭阳区团结路（昭通滇东北商贸城）,https://dealer.autohome.com.cn/82161/#pvareaid=2113601,2020-02-20 16:55:28
https://dealer.autohome.com.cn/akesu/0/62/0/0/1/0/0/0.html,新疆,阿克苏,东风悦达起亚,2077027,阿克苏悦诚,400-830-7701,阿克苏市大欣国际汽车城3区10号展厅,https://dealer.autohome.com.cn/2077027/#pvareaid=2113601,2020-02-20 16:55:28
https://dealer.autohome.com.cn/bayinguoleng/0/62/0/0/1/0/0/0.html,新疆,巴音郭楞,东风悦达起亚,77392,强运汽车销售,400-866-7229,新疆库尔勒石化大道神州汽车城后部（车城美居旁）,https://dealer.autohome.com.cn/77392/#pvareaid=2113601,2020-02-20 16:55:28
https://dealer.autohome.com.cn/kunming/0/62/0/0/1/0/0/0.html,云南,昆明,东风悦达起亚,5317,云南谊和起亚4S店,400-830-1387,昆明市高新区小屯汽车城内,https://dealer.autohome.com.cn/5317/#pvareaid=2113601,2020-02-20 16:55:28
https://dealer.autohome.com.cn/kunming/0/62/0/0/1/0/0/0.html,云南,昆明,东风悦达起亚,2018098,云南中星起亚4S店,400-872-6560,云南省昆明市官渡区彩云北路7452号（大都往呈贡方向下行300米）,https://dealer.autohome.com.cn/2018098/#pvareaid=2113601,2020-02-20 16:55:28
https://dealer.autohome.com.cn/kunming/0/62/0/0/1/0/0/0.html,云南,昆明,东风悦达起亚,2099364,云南吉至起亚谊和经开区店,400-866-7578,昆明市官渡区顺通大道国际汽车城C03号,https://dealer.autohome.com.cn/2099364/#pvareaid=2113601,2020-02-20 16:55:28
https://dealer.autohome.com.cn/kashen/0/62/0/0/1/0/0/0.html,新疆,喀什,东风悦达起亚,113309,喀什永祥东风悦达起亚,400-930-1449,喀什疏勒工业园（315国道旁）,https://dealer.autohome.com.cn/113309/#pvareaid=2113601,2020-02-20 16:55:28
https://dealer.autohome.com.cn/yili/0/62/0/0/1/0/0/0.html,新疆,伊犁,东风悦达起亚,119587,伊犁沛林汽车,400-931-4293,伊宁市巴彦岱镇中亚汽车博览中心,https://dealer.autohome.com.cn/119587/#pvareaid=2113601,2020-02-20 16:55:28
https://dealer.autohome.com.cn/ankang/0/62/0/0/1/0/0/0.html,陕西,安康,东风悦达起亚,2103542,安康盛通达专营店,400-868-9813,陕西省安康市高新技术产业开发区钻石东路,https://dealer.autohome.com.cn/2103542/#pvareaid=2113601,2020-02-20 16:55:28
https://dealer.autohome.com.cn/wulumuqi/0/62/0/0/1/0/0/0.html,新疆,乌鲁木齐,东风悦达起亚,14592,国奥和成,400-866-2135,新疆乌鲁木齐市高新区（新市区）鲤鱼山路1号赛博特汽车城C区-05,https://dealer.autohome.com.cn/14592/#pvareaid=2113601,2020-02-20 16:55:28
https://dealer.autohome.com.cn/wulumuqi/0/62/0/0/1/0/0/0.html,新疆,乌鲁木齐,东风悦达起亚,7273,永泰祥车业,400-830-7607,乌鲁木齐市经济开发区喀什西路756号,https://dealer.autohome.com.cn/7273/#pvareaid=2113601,2020-02-20 16:55:28
https://dealer.autohome.com.cn/wulumuqi/0/62/0/0/1/0/0/0.html,新疆,乌鲁木齐,东风悦达起亚,2025747,新疆东风悦达起亚博亚天成,400-897-0456,新疆乌鲁木齐市水磨沟区南湖北路866号综合展厅,https://dealer.autohome.com.cn/2025747/#pvareaid=2113601,2020-02-20 16:55:28
https://dealer.autohome.com.cn/lasa/0/62/0/0/1/0/0/0.html,西藏,拉萨,东风悦达起亚,2095658,拉萨万融长捷起亚4S店,400-866-8332,拉萨市罗堆中路6号,https://dealer.autohome.com.cn/2095658/#pvareaid=2113601,2020-02-20 16:55:28
https://dealer.autohome.com.cn/lasa/0/62/0/0/1/0/0/0.html,西藏,拉萨,东风悦达起亚,2101501,拉萨恒达起亚汽车,400-866-1583,拉萨市拉贡大道与园区南路交叉口西北角,https://dealer.autohome.com.cn/2101501/#pvareaid=2113601,2020-02-20 16:55:28
https://dealer.autohome.com.cn/yanan/0/62/0/0/1/0/0/0.html,陕西,延安,东风悦达起亚,72467,延安汇宁,400-897-1236,陕西省延安市宝塔区南二十里铺柳树巷,https://dealer.autohome.com.cn/72467/#pvareaid=2113601,2020-02-20 16:55:28
https://dealer.autohome.com.cn/tongchuan/0/62/0/0/1/0/0/0.html,陕西,铜川,东风悦达起亚,124444,铜川星原,400-830-2502,陕西省铜川市新区长丰南路,https://dealer.autohome.com.cn/124444/#pvareaid=2113601,2020-02-20 16:55:28
https://dealer.autohome.com.cn/yulin/0/62/0/0/1/0/0/0.html,陕西,榆林,东风悦达起亚,14088,东风悦达起亚榆林金利汽车,400-868-0387,榆林市开发区草海则村电厂路,https://dealer.autohome.com.cn/14088/#pvareaid=2113601,2020-02-20 16:55:28
https://dealer.autohome.com.cn/changji/0/62/0/0/1/0/0/0.html,新疆,昌吉,东风悦达起亚,123075,昌吉汇京昌顺,400-897-0045,新疆昌吉州昌吉市乌伊西路中山路街道办事处夹滩村汽车城南侧,https://dealer.autohome.com.cn/123075/#pvareaid=2113601,2020-02-20 16:55:28
https://dealer.autohome.com.cn/hanzhong/0/62/0/0/1/0/0/0.html,陕西,汉中,东风悦达起亚,72470,汉中市恒远,400-872-6741,陕西省汉中市汉台区石马坡什字北侧,https://dealer.autohome.com.cn/72470/#pvareaid=2113601,2020-02-20 16:55:28
https://dealer.autohome.com.cn/weinan/0/62/0/0/1/0/0/0.html,陕西,渭南,东风悦达起亚,14084,宏远恒泰汽车,400-830-2849,渭南市华山大街东段丰原路口东100米路南,https://dealer.autohome.com.cn/14084/#pvareaid=2113601,2020-02-20 16:55:28
https://dealer.autohome.com.cn/baoji/0/62/0/0/1/0/0/0.html,陕西,宝鸡,东风悦达起亚,14085,起亚宝鸡捷高恒泰4S店,400-872-0240,宝鸡市渭滨区高新十二路西16号,https://dealer.autohome.com.cn/14085/#pvareaid=2113601,2020-02-20 16:55:28
https://dealer.autohome.com.cn/xian/0/62/0/0/1/0/0/0.html,陕西,西安,东风悦达起亚,84754,陕西瑞侨,400-830-4814,西安市高新区新型工业园西部大道107号,https://dealer.autohome.com.cn/84754/#pvareaid=2113601,2020-02-20 16:55:28
https://dealer.autohome.com.cn/xian/0/62/0/0/1/0/0/0.html,陕西,西安,东风悦达起亚,3712,陕西恒泰汽车,400-830-4387,西安市三桥经济技术开发区疏导线58号中国西部国际车城4S店集群区,https://dealer.autohome.com.cn/3712/#pvareaid=2113601,2020-02-20 16:55:28
https://dealer.autohome.com.cn/xian/0/62/0/0/1/0/0/0.html,陕西,西安,东风悦达起亚,3711,陕西百富通,400-830-5319,陕西省西安市经济开发区C5区凤城五路58号,https://dealer.autohome.com.cn/3711/#pvareaid=2113601,2020-02-20 16:55:28
https://dealer.autohome.com.cn/liangshan/0/62/0/0/1/0/0/0.html,四川,凉山,东风悦达起亚,14064,西昌航天车业,400-868-7187,西昌市风情园中路1号,https://dealer.autohome.com.cn/14064/#pvareaid=2113601,2020-02-20 16:55:28
https://dealer.autohome.com.cn/yibin/0/62/0/0/1/0/0/0.html,四川,宜宾,东风悦达起亚,129972,宜宾安鸿吉亚,400-868-9398,四川宜宾临港经济开发区飞云路北段安吉汽车城,https://dealer.autohome.com.cn/129972/#pvareaid=2113601,2020-02-20 16:55:28
https://dealer.autohome.com.cn/leshan/0/62/0/0/1/0/0/0.html,四川,乐山,东风悦达起亚,77587,乐山天牛起亚4S店,400-872-3252,乐山市中区王河园天牛汽车城,https://dealer.autohome.com.cn/77587/#pvareaid=2113601,2020-02-20 16:55:29
https://dealer.autohome.com.cn/bazhong/0/62/0/0/1/0/0/0.html,四川,巴中,东风悦达起亚,2005336,巴中圣鞍起亚4S店,400-868-2417,巴中市黄家沟西部国际商贸城汽车产业园,https://dealer.autohome.com.cn/2005336/#pvareaid=2113601,2020-02-20 16:55:29
https://dealer.autohome.com.cn/dazhou/0/62/0/0/1/0/0/0.html,四川,达州,东风悦达起亚,81884,达州起亚,400-872-7431,达州市南外二号干道天马汽车城（杨柳垭配套工业园区）,https://dealer.autohome.com.cn/81884/#pvareaid=2113601,2020-02-20 16:55:29
https://dealer.autohome.com.cn/meishan/0/62/0/0/1/0/0/0.html,四川,眉山,东风悦达起亚,2103117,眉山凯威东风悦达起亚,400-866-1703,四川省眉山经济开发区新区本草大道南段10号C4幢1-2层1号,https://dealer.autohome.com.cn/2103117/#pvareaid=2113601,2020-02-20 16:55:29
https://dealer.autohome.com.cn/nanchong/0/62/0/0/1/0/0/0.html,四川,南充,东风悦达起亚,14065,南充天成起亚4S店,400-961-7907,南充市顺庆区潆溪工业园车管所旁,https://dealer.autohome.com.cn/14065/#pvareaid=2113601,2020-02-20 16:55:29
https://dealer.autohome.com.cn/deyang/0/62/0/0/1/0/0/0.html,四川,德阳,东风悦达起亚,2077034,德阳晟翔汽车,400-868-4599,德阳市旌阳区庐山南路三段38号(迁址到：金沙江西路689号 新东汽厂对面）,https://dealer.autohome.com.cn/2077034/#pvareaid=2113601,2020-02-20 16:55:29
https://dealer.autohome.com.cn/suining/0/62/0/0/1/0/0/0.html,四川,遂宁,东风悦达起亚,2100784,遂宁川速起亚汽车,400-868-8267,遂宁市船山区中国西部现代物流港天联东风汽车城4号楼,https://dealer.autohome.com.cn/2100784/#pvareaid=2113601,2020-02-20 16:55:29
https://dealer.autohome.com.cn/mianyang/0/62/0/0/1/0/0/0.html,四川,绵阳,东风悦达起亚,4835,绵阳东风南方绵达4S店,400-872-6909,绵阳市高新区绵兴东路131号（长虹商贸中心斜对面）,https://dealer.autohome.com.cn/4835/#pvareaid=2113601,2020-02-20 16:55:29
https://dealer.autohome.com.cn/guangyuan/0/62/0/0/1/0/0/0.html,四川,广元,东风悦达起亚,66445,广元金悦顺汽车销售,400-830-5408,四川省广元市盘龙镇太阳村川北国际汽车城,https://dealer.autohome.com.cn/66445/#pvareaid=2113601,2020-02-20 16:55:29
https://dealer.autohome.com.cn/luzhou/0/62/0/0/1/0/0/0.html,四川,泸州,东风悦达起亚,81931,新元素车业,400-868-5584,四川省泸州市纳溪区蓝安大道顺屋基浙江工业园,https://dealer.autohome.com.cn/81931/#pvareaid=2113601,2020-02-20 16:55:29
https://dealer.autohome.com.cn/binzhou/0/62/0/0/1/0/0/0.html,山东,滨州,东风悦达起亚,2102882,滨州金天易起亚,400-868-3847,山东省滨州市滨城区北外环路以北渤海四路以西1217号,https://dealer.autohome.com.cn/2102882/#pvareaid=2113601,2020-02-20 16:55:29
https://dealer.autohome.com.cn/chengdu/0/62/0/0/1/0/0/0.html,四川,成都,东风悦达起亚,84767,成都锦华起亚,400-838-5568,成都市锦江区皇经楼路297号,https://dealer.autohome.com.cn/84767/#pvareaid=2113601,2020-02-20 16:55:29
https://dealer.autohome.com.cn/chengdu/0/62/0/0/1/0/0/0.html,四川,成都,东风悦达起亚,2005994,申蓉桂锋起亚4S店,400-868-3763,成都市武侯区武侯大道南延线武兴路110号,https://dealer.autohome.com.cn/2005994/#pvareaid=2113601,2020-02-20 16:55:29
https://dealer.autohome.com.cn/chengdu/0/62/0/0/1/0/0/0.html,四川,成都,东风悦达起亚,128835,成都兴天合起亚,400-868-1909,成都市温江区温泉大道三段浩瀚路2号,https://dealer.autohome.com.cn/128835/#pvareaid=2113601,2020-02-20 16:55:29
https://dealer.autohome.com.cn/chengdu/0/62/0/0/1/0/0/0.html,四川,成都,东风悦达起亚,2102275,悦浩起亚,400-868-6986,成都市金牛区蜀西路83号,https://dealer.autohome.com.cn/2102275/#pvareaid=2113601,2020-02-20 16:55:29
https://dealer.autohome.com.cn/chengdu/0/62/0/0/1/0/0/0.html,四川,成都,东风悦达起亚,124427,金堂宇霖起亚,400-830-1431,成都市金堂县金堂大道997号,https://dealer.autohome.com.cn/124427/#pvareaid=2113601,2020-02-20 16:55:29
https://dealer.autohome.com.cn/chengdu/0/62/0/0/1/0/0/0.html,四川,成都,东风悦达起亚,2051725,成都集大成起亚4S店,400-872-8837,成都市高新区火车南站西路1701号（机场路辅道),https://dealer.autohome.com.cn/2051725/#pvareaid=2113601,2020-02-20 16:55:29
https://dealer.autohome.com.cn/liaocheng/0/62/0/0/1/0/0/0.html,山东,聊城,东风悦达起亚,2914,聊城北斗汽车,400-830-8947,聊城开发区东昌东路小湄河东岸（北斗汽车公园内）,https://dealer.autohome.com.cn/2914/#pvareaid=2113601,2020-02-20 16:55:29
https://dealer.autohome.com.cn/heze/0/62/0/0/1/0/0/0.html,山东,菏泽,东风悦达起亚,2096629,菏泽牡丹花起亚店,400-868-3116,山东省菏泽市定陶区车管所北邻（菏泽范蠡汽车销售服务有限公司院内）,https://dealer.autohome.com.cn/2096629/#pvareaid=2113601,2020-02-20 16:55:29
https://dealer.autohome.com.cn/heze/0/62/0/0/1/0/0/0.html,山东,菏泽,东风悦达起亚,99026,菏泽祥瑞起亚店,400-830-8447,菏泽市黄河东路800号正大汽车广场,https://dealer.autohome.com.cn/99026/#pvareaid=2113601,2020-02-20 16:55:29
https://dealer.autohome.com.cn/dezhou/0/62/0/0/1/0/0/0.html,山东,德州,东风悦达起亚,2906,德州中冀起亚店,400-830-5061,德州市经济开发区天衢东路金华茶城北门东临,https://dealer.autohome.com.cn/2906/#pvareaid=2113601,2020-02-20 16:55:29
https://dealer.autohome.com.cn/dezhou/0/62/0/0/1/0/0/0.html,山东,德州,东风悦达起亚,101169,德州华耀4s店,400-868-4116,山东省德州市东风中路389号,https://dealer.autohome.com.cn/101169/#pvareaid=2113601,2020-02-20 16:55:29
https://dealer.autohome.com.cn/weihai/0/62/0/0/1/0/0/0.html,山东,威海,东风悦达起亚,2927,威海荣佳汽车,400-866-2501,山东省威海市珠海路650号,https://dealer.autohome.com.cn/2927/#pvareaid=2113601,2020-02-20 16:55:29
https://dealer.autohome.com.cn/linyi/0/62/0/0/1/0/0/0.html,山东,临沂,东风悦达起亚,79109,河东远通启华起亚,400-866-7322,河东区三和东街与东外环交汇处（沂河北大桥东行4公里临沂市新车管所对过）,https://dealer.autohome.com.cn/79109/#pvareaid=2113601,2020-02-20 16:55:29
https://dealer.autohome.com.cn/rizhao/0/62/0/0/1/0/0/0.html,山东,日照,东风悦达起亚,2092547,日照岚之星起亚4S店,400-872-7403,山东省日照市奎山汽车城南昌路与包头路交汇处南100米路东,https://dealer.autohome.com.cn/2092547/#pvareaid=2113601,2020-02-20 16:55:29
https://dealer.autohome.com.cn/weifang/0/62/0/0/1/0/0/0.html,山东,潍坊,东风悦达起亚,109125,潍坊华瑞,400-830-5287,山东省潍坊市奎文区潍州路418号（金宝乐园南行2公里路西）,https://dealer.autohome.com.cn/109125/#pvareaid=2113601,2020-02-20 16:55:29
https://dealer.autohome.com.cn/weifang/0/62/0/0/1/0/0/0.html,山东,潍坊,东风悦达起亚,124493,诸城盛邦起亚,400-868-8786,山东省诸城市西外环与北外环交叉口路西50米路南,https://dealer.autohome.com.cn/124493/#pvareaid=2113601,2020-02-20 16:55:29
https://dealer.autohome.com.cn/jining/0/62/0/0/1/0/0/0.html,山东,济宁,东风悦达起亚,10145,济宁起亚辰鑫店,400-931-4291,济宁市新327国道圣达汽车博览城,https://dealer.autohome.com.cn/10145/#pvareaid=2113601,2020-02-20 16:55:29
https://dealer.autohome.com.cn/taian/0/62/0/0/1/0/0/0.html,山东,泰安,东风悦达起亚,2091595,泰安广融起亚4S店,400-830-4497,泰安市泰东路泰山国际汽车城（庞大奔驰南临）,https://dealer.autohome.com.cn/2091595/#pvareaid=2113601,2020-02-20 16:55:29
https://dealer.autohome.com.cn/yantai/0/62/0/0/1/0/0/0.html,山东,烟台,东风悦达起亚,2094771,烟台君通起亚,400-872-4044,莱山机场南3公里君通汽车城,https://dealer.autohome.com.cn/2094771/#pvareaid=2113601,2020-02-20 16:55:29
https://dealer.autohome.com.cn/zibo/0/62/0/0/1/0/0/0.html,山东,淄博,东风悦达起亚,2105210,顺诚天弘起亚淄博山泉路店,400-830-5572,山东省淄博市张店区山泉路80-1号,https://dealer.autohome.com.cn/2105210/#pvareaid=2113601,2020-02-20 16:55:30
https://dealer.autohome.com.cn/zibo/0/62/0/0/1/0/0/0.html,山东,淄博,东风悦达起亚,14466,顺骋起亚淄博中心路店,400-872-2116,山东淄博市张店区中心路176-1号,https://dealer.autohome.com.cn/14466/#pvareaid=2113601,2020-02-20 16:55:30
https://dealer.autohome.com.cn/jinan/0/62/0/0/1/0/0/0.html,山东,济南,东风悦达起亚,2093187,山东新贵起亚,400-868-4315,济南市槐荫区西外环路68号匡山汽车大世界东区58号,https://dealer.autohome.com.cn/2093187/#pvareaid=2113601,2020-02-20 16:55:30
https://dealer.autohome.com.cn/jinan/0/62/0/0/1/0/0/0.html,山东,济南,东风悦达起亚,2895,济南金万通起亚,400-830-6264,济南市槐荫区经十西路3566号（西部汽车主题公园）,https://dealer.autohome.com.cn/2895/#pvareaid=2113601,2020-02-20 16:55:30
https://dealer.autohome.com.cn/jinan/0/62/0/0/1/0/0/0.html,山东,济南,东风悦达起亚,2911,山东安华汽车,400-830-4737,济南市历城区经十东路33558号,https://dealer.autohome.com.cn/2911/#pvareaid=2113601,2020-02-20 16:55:30
https://dealer.autohome.com.cn/jinan/0/62/0/0/1/0/0/0.html,山东,济南,东风悦达起亚,2095952,济南金天易起亚,400-872-5122,济南市历城区工业北路95号,https://dealer.autohome.com.cn/2095952/#pvareaid=2113601,2020-02-20 16:55:30
https://dealer.autohome.com.cn/jinan/0/62/0/0/1/0/0/0.html,山东,济南,东风悦达起亚,122789,山东金万通起亚,400-830-6257,济南市章丘区双山北路与世纪西路交叉口向南200米路西（龙盘山公园南门斜对过）,https://dealer.autohome.com.cn/122789/#pvareaid=2113601,2020-02-20 16:55:30
https://dealer.autohome.com.cn/changzhi/0/62/0/0/1/0/0/0.html,山西,长治,东风悦达起亚,123944,长治飞路臣信,400-930-0917,山西省长治西二环路（北寨十字岗南500米路东）,https://dealer.autohome.com.cn/123944/#pvareaid=2113601,2020-02-20 16:55:30
https://dealer.autohome.com.cn/qingdao/0/62/0/0/1/0/0/0.html,山东,青岛,东风悦达起亚,11920,青岛韩亚汽车,400-868-4855,青岛市市北区重庆南路157号/黑龙江中路城阳段10号（原罗圈涧收费站处）,https://dealer.autohome.com.cn/11920/#pvareaid=2113601,2020-02-20 16:55:30
https://dealer.autohome.com.cn/qingdao/0/62/0/0/1/0/0/0.html,山东,青岛,东风悦达起亚,2017703,青岛瑞亚汽车,400-872-5427,山东省青岛市黄岛区东岳中路（原泰山路357号）,https://dealer.autohome.com.cn/2017703/#pvareaid=2113601,2020-02-20 16:55:30
https://dealer.autohome.com.cn/qingdao/0/62/0/0/1/0/0/0.html,山东,青岛,东风悦达起亚,120336,青岛悦祺,400-897-0243,青岛市平度市青岛路477-7号（西关汽车城）,https://dealer.autohome.com.cn/120336/#pvareaid=2113601,2020-02-20 16:55:30
https://dealer.autohome.com.cn/qingdao/0/62/0/0/1/0/0/0.html,山东,青岛,东风悦达起亚,120337,钰滨赫汽车,400-897-0242,山东省青岛即墨市经济开发区青威路1050号,https://dealer.autohome.com.cn/120337/#pvareaid=2113601,2020-02-20 16:55:30
https://dealer.autohome.com.cn/datong/0/62/0/0/1/0/0/0.html,山西,大同,东风悦达起亚,4100,大同迪捷起亚,400-872-3437,大同市南环路西延段庞大汽车园林广场20号,https://dealer.autohome.com.cn/4100/#pvareaid=2113601,2020-02-20 16:55:30
https://dealer.autohome.com.cn/datong/0/62/0/0/1/0/0/0.html,山西,大同,东风悦达起亚,121118,大同胜翔汽车,400-872-9682,山西省大同市开发区汽车城,https://dealer.autohome.com.cn/121118/#pvareaid=2113601,2020-02-20 16:55:30
https://dealer.autohome.com.cn/xining/0/62/0/0/1/0/0/0.html,青海,西宁,东风悦达起亚,102668,青海嘉恒起亚4S店,400-897-0662,青海省西宁市城东经济开发区昆仑东路14号（车管所旁）,https://dealer.autohome.com.cn/102668/#pvareaid=2113601,2020-02-20 16:55:30
https://dealer.autohome.com.cn/chifeng/0/62/0/0/1/0/0/0.html,内蒙古,赤峰,东风悦达起亚,124395,赤峰大成起亚4S店,400-830-6408,赤峰市红山区桥北物流园区赤锡路130号桥北大成专营店,https://dealer.autohome.com.cn/124395/#pvareaid=2113601,2020-02-20 16:55:30
https://dealer.autohome.com.cn/wulanchabu/0/62/0/0/1/0/0/0.html,内蒙古,乌兰察布,东风悦达起亚,69530,声荣汽车,400-866-8827,乌兰察布市208国道新车管所南100米,https://dealer.autohome.com.cn/69530/#pvareaid=2113601,2020-02-20 16:55:30
https://dealer.autohome.com.cn/taiyuan/0/62/0/0/1/0/0/0.html,山西,太原,东风悦达起亚,70407,山西福瑞沃汽车,400-860-2054,太原市太榆路1号（太榆路与学府街交汇处西南角）,https://dealer.autohome.com.cn/70407/#pvareaid=2113601,2020-02-20 16:55:30
https://dealer.autohome.com.cn/yinchuan/0/62/0/0/1/0/0/0.html,宁夏,银川,东风悦达起亚,10157,东风悦达起亚宁夏天利4S店,400-868-5741,宁夏银川市德胜工业园区中央大道1-1号,https://dealer.autohome.com.cn/10157/#pvareaid=2113601,2020-02-20 16:55:30
https://dealer.autohome.com.cn/yinchuan/0/62/0/0/1/0/0/0.html,宁夏,银川,东风悦达起亚,121722,银川恒信国亚4S店,400-872-2647,银川市金凤区工业园宝湖西路创业街西侧,https://dealer.autohome.com.cn/121722/#pvareaid=2113601,2020-02-20 16:55:30
https://dealer.autohome.com.cn/yinchuan/0/62/0/0/1/0/0/0.html,宁夏,银川,东风悦达起亚,111238,东风悦达起亚人和店,400-868-7381,宁夏银川德胜工业园区德鑫路,https://dealer.autohome.com.cn/111238/#pvareaid=2113601,2020-02-20 16:55:30
https://dealer.autohome.com.cn/baotou/0/62/0/0/1/0/0/0.html,内蒙古,包头,东风悦达起亚,2095668,包头领航,400-872-3297,内蒙古自治区包头市稀土开发区友谊大街34号,https://dealer.autohome.com.cn/2095668/#pvareaid=2113601,2020-02-20 16:55:30
https://dealer.autohome.com.cn/tongliao/0/62/0/0/1/0/0/0.html,内蒙古,通辽,东风悦达起亚,104875,通辽市大鹏起亚4S店,400-868-5249,通辽市河西镇瑞丰汽贸物流园L1区,https://dealer.autohome.com.cn/104875/#pvareaid=2113601,2020-02-20 16:55:30
https://dealer.autohome.com.cn/fu_zhou/0/62/0/0/1/0/0/0.html,江西,抚州,东风悦达起亚,104872,抚州东之杰,400-830-1473,江西省抚州市迎宾大道东南昌大学对面院内,https://dealer.autohome.com.cn/104872/#pvareaid=2113601,2020-02-20 16:55:30
https://dealer.autohome.com.cn/ganzhou/0/62/0/0/1/0/0/0.html,江西,赣州,东风悦达起亚,2020252,赣州环亚4S店,400-868-8221,江西省赣州市南康区龙岭镇赣南汽车城B-10地块32号,https://dealer.autohome.com.cn/2020252/#pvareaid=2113601,2020-02-20 16:55:30
https://dealer.autohome.com.cn/shenyang/0/62/0/0/1/0/0/0.html,辽宁,沈阳,东风悦达起亚,124878,沈阳路丰源起亚4S店,400-872-5715,沈阳市浑南西路与胜利大街交汇处200米,https://dealer.autohome.com.cn/124878/#pvareaid=2113601,2020-02-20 16:55:30
https://dealer.autohome.com.cn/zhenjiang/0/62/0/0/1/0/0/0.html,江苏,镇江,东风悦达起亚,2095636,丹阳汇通起亚,400-868-6127,丹阳市开发区齐梁路,https://dealer.autohome.com.cn/2095636/#pvareaid=2113601,2020-02-20 16:55:30
https://dealer.autohome.com.cn/jian/0/62/0/0/1/0/0/0.html,江西,吉安,东风悦达起亚,2101511,吉安新胜起亚4s店,400-868-5918,江西省吉安市青原区青原大道以南物流汽贸园8号地块,https://dealer.autohome.com.cn/2101511/#pvareaid=2113601,2020-02-20 16:55:30
https://dealer.autohome.com.cn/lianyungang/0/62/0/0/1/0/0/0.html,江苏,连云港,东风悦达起亚,116651,连云港悦亚汽车,400-897-0738,江苏省连云港市海州区瀛洲南路236号,https://dealer.autohome.com.cn/116651/#pvareaid=2113601,2020-02-20 16:55:30
https://dealer.autohome.com.cn/lianyungang/0/62/0/0/1/0/0/0.html,江苏,连云港,东风悦达起亚,2103381,锦泰起亚,400-872-2101,赣榆区经济技术开发区厦门路1号,https://dealer.autohome.com.cn/2103381/#pvareaid=2113601,2020-02-20 16:55:30
https://dealer.autohome.com.cn/yangzhou/0/62/0/0/1/0/0/0.html,江苏,扬州,东风悦达起亚,84284,扬州龙兴,400-872-7681,扬州市江都区仙女镇华山路606号,https://dealer.autohome.com.cn/84284/#pvareaid=2113601,2020-02-20 16:55:30
https://dealer.autohome.com.cn/tai_zhou/0/62/0/0/1/0/0/0.html,江苏,泰州,东风悦达起亚,73116,泰州海洋,400-868-0291,江苏省泰州市经济开发区寺巷国际汽车城,https://dealer.autohome.com.cn/73116/#pvareaid=2113601,2020-02-20 16:55:30
https://dealer.autohome.com.cn/suqian/0/62/0/0/1/0/0/0.html,江苏,宿迁,东风悦达起亚,2019009,泗洪苏驰恒基,400-872-2516,泗洪国际汽车城汽车城大街,https://dealer.autohome.com.cn/2019009/#pvareaid=2113601,2020-02-20 16:55:31
https://dealer.autohome.com.cn/yancheng/0/62/0/0/1/0/0/0.html,江苏,盐城,东风悦达起亚,73840,江苏悦达东方,400-866-7259,盐城市开发区希望大道99号（起亚二工厂对面）,https://dealer.autohome.com.cn/73840/#pvareaid=2113601,2020-02-20 16:55:31
https://dealer.autohome.com.cn/yancheng/0/62/0/0/1/0/0/0.html,江苏,盐城,东风悦达起亚,4706,江苏悦达嘉华,400-830-5613,盐城市开放大道8号（悦达总厂南）,https://dealer.autohome.com.cn/4706/#pvareaid=2113601,2020-02-20 16:55:31
https://dealer.autohome.com.cn/yancheng/0/62/0/0/1/0/0/0.html,江苏,盐城,东风悦达起亚,2016056,滨海悦亚4S店,400-868-9044,滨海高速口向北2公里新安大道处（滨海医药产业园对面）,https://dealer.autohome.com.cn/2016056/#pvareaid=2113601,2020-02-20 16:55:31
https://dealer.autohome.com.cn/yancheng/0/62/0/0/1/0/0/0.html,江苏,盐城,东风悦达起亚,105399,东台悦亚4S店,400-830-6062,江苏省东台市城新区永宁汽车城,https://dealer.autohome.com.cn/105399/#pvareaid=2113601,2020-02-20 16:55:31
https://dealer.autohome.com.cn/yancheng/0/62/0/0/1/0/0/0.html,江苏,盐城,东风悦达起亚,129535,江苏捷翔,400-872-0892,盐城市盐都区东方汽贸广场开创路2-2号,https://dealer.autohome.com.cn/129535/#pvareaid=2113601,2020-02-20 16:55:31
https://dealer.autohome.com.cn/huaian/0/62/0/0/1/0/0/0.html,江苏,淮安,东风悦达起亚,4654,淮安市新兴,400-830-3435,淮安市开发区厦门西路26号,https://dealer.autohome.com.cn/4654/#pvareaid=2113601,2020-02-20 16:55:31
https://dealer.autohome.com.cn/suzhou/0/62/0/0/1/0/0/0.html,江苏,苏州,东风悦达起亚,5088,苏州丰丰汽车,400-830-7594,江苏省苏州市高新区国际汽车城浩福路1号,https://dealer.autohome.com.cn/5088/#pvareaid=2113601,2020-02-20 16:55:31
https://dealer.autohome.com.cn/suzhou/0/62/0/0/1/0/0/0.html,江苏,苏州,东风悦达起亚,102975,昆山海悦,400-866-2561,昆山中环萧林东路出口向东500米（周市汽车城内）,https://dealer.autohome.com.cn/102975/#pvareaid=2113601,2020-02-20 16:55:31
https://dealer.autohome.com.cn/xuzhou/0/62/0/0/1/0/0/0.html,江苏,徐州,东风悦达起亚,2096030,徐州华界起亚,400-897-0232,徐州市铜山区北京南路291-2,https://dealer.autohome.com.cn/2096030/#pvareaid=2113601,2020-02-20 16:55:31
https://dealer.autohome.com.cn/nantong/0/62/0/0/1/0/0/0.html,江苏,南通,东风悦达起亚,4880,南通嘉华专营店,400-868-8913,南通市港闸区城港路150号（越江路口向西一公里、永兴国际车城对面）,https://dealer.autohome.com.cn/4880/#pvareaid=2113601,2020-02-20 16:55:31
https://dealer.autohome.com.cn/nantong/0/62/0/0/1/0/0/0.html,江苏,南通,东风悦达起亚,125166,如东起成起亚专营店,400-897-3485,江苏省南通市如东汽车城（国清寺向西380米）,https://dealer.autohome.com.cn/125166/#pvareaid=2113601,2020-02-20 16:55:31
https://dealer.autohome.com.cn/nantong/0/62/0/0/1/0/0/0.html,江苏,南通,东风悦达起亚,13715,海门宝力起亚,400-868-6043,海门市人民西路1688号,https://dealer.autohome.com.cn/13715/#pvareaid=2113601,2020-02-20 16:55:31
https://dealer.autohome.com.cn/changzhou/0/62/0/0/1/0/0/0.html,江苏,常州,东风悦达起亚,4055,常州万事达,400-808-0684,薛家镇顺园路88-11号薛家汽车城,https://dealer.autohome.com.cn/4055/#pvareaid=2113601,2020-02-20 16:55:31
https://dealer.autohome.com.cn/changzhou/0/62/0/0/1/0/0/0.html,江苏,常州,东风悦达起亚,2105216,常州欧派罗起亚,400-618-3392,常州市武进区湖塘镇武进汽车城西南区8号楼,https://dealer.autohome.com.cn/2105216/#pvareaid=2113601,2020-02-20 16:55:31
https://dealer.autohome.com.cn/wuxi/0/62/0/0/1/0/0/0.html,江苏,无锡,东风悦达起亚,5157,无锡东方乐通,400-830-2772,无锡市金城东路290号东方汽车新城B10座,https://dealer.autohome.com.cn/5157/#pvareaid=2113601,2020-02-20 16:55:31
https://dealer.autohome.com.cn/loudi/0/62/0/0/1/0/0/0.html,湖南,娄底,东风悦达起亚,12047,娄底华新汽车,400-868-3086,湖南省娄底市湘阳路棉纺厂前五十米,https://dealer.autohome.com.cn/12047/#pvareaid=2113601,2020-02-20 16:55:31
https://dealer.autohome.com.cn/haikou/0/62/0/0/1/0/0/0.html,海南,海口,东风悦达起亚,12338,海南创亿起亚4S店,400-872-4039,海南省海口市南海大道61号,https://dealer.autohome.com.cn/12338/#pvareaid=2113601,2020-02-20 16:55:31
https://dealer.autohome.com.cn/haikou/0/62/0/0/1/0/0/0.html,海南,海口,东风悦达起亚,108659,起亚汽车海口智晨秀英店,400-872-2451,南海大道204号（南海大道与秀英大道交界口秀英高铁站，汽车大世界旁）,https://dealer.autohome.com.cn/108659/#pvareaid=2113601,2020-02-20 16:55:31
https://dealer.autohome.com.cn/changchun/0/62/0/0/1/0/0/0.html,吉林,长春,东风悦达起亚,118614,吉林同泽,400-830-6317,吉林省长春市经开区浦东路1151号,https://dealer.autohome.com.cn/118614/#pvareaid=2113601,2020-02-20 16:55:31
https://dealer.autohome.com.cn/changchun/0/62/0/0/1/0/0/0.html,吉林,长春,东风悦达起亚,14057,长春新鸿达起亚4S店,400-830-1587,基隆街与花莲路交汇（西安广场北口直行）,https://dealer.autohome.com.cn/14057/#pvareaid=2113601,2020-02-20 16:55:31
https://dealer.autohome.com.cn/chenzhou/0/62/0/0/1/0/0/0.html,湖南,郴州,东风悦达起亚,2027043,鹏洋恒达东风悦达起亚4S,400-868-7798,郴州市苏仙区王仙岭街道郴州大道与京珠高速交汇处东南侧,https://dealer.autohome.com.cn/2027043/#pvareaid=2113601,2020-02-20 16:55:31
https://dealer.autohome.com.cn/chenzhou/0/62/0/0/1/0/0/0.html,湖南,郴州,东风悦达起亚,12046,郴州华悦东风悦达起亚4S店,400-872-3972,湖南省郴州市开发区万华路1号,https://dealer.autohome.com.cn/12046/#pvareaid=2113601,2020-02-20 16:55:31
https://dealer.autohome.com.cn/sanya/0/62/0/0/1/0/0/0.html,海南,三亚,东风悦达起亚,14091,三亚创元汽车,400-897-0705,三亚市迎宾大道399号,https://dealer.autohome.com.cn/14091/#pvareaid=2113601,2020-02-20 16:55:31
https://dealer.autohome.com.cn/yiyang/0/62/0/0/1/0/0/0.html,湖南,益阳,东风悦达起亚,66938,益阳晓园华美,400-830-6293,湖南省益阳市赫山区十洲路（赫山农业发展银行旁）,https://dealer.autohome.com.cn/66938/#pvareaid=2113601,2020-02-20 16:55:31
https://dealer.autohome.com.cn/changde/0/62/0/0/1/0/0/0.html,湖南,常德,东风悦达起亚,125164,常德双星星悦起亚4S店,400-897-0034,湖南省常德市常德大道樟木桥段（中石油加油站以东）,https://dealer.autohome.com.cn/125164/#pvareaid=2113601,2020-02-20 16:55:31
https://dealer.autohome.com.cn/changde/0/62/0/0/1/0/0/0.html,湖南,常德,东风悦达起亚,12045,常德东亚汽车4S店,400-830-6418,常德市湘西北汽贸城龙港北路（丁玲公园斜对面）,https://dealer.autohome.com.cn/12045/#pvareaid=2113601,2020-02-20 16:55:31
https://dealer.autohome.com.cn/changde/0/62/0/0/1/0/0/0.html,湖南,常德,东风悦达起亚,2029925,澧县湘北,400-866-1110,湖南省常德市澧县澧州路与十一支交汇处湘北汽车城内,https://dealer.autohome.com.cn/2029925/#pvareaid=2113601,2020-02-20 16:55:31
https://dealer.autohome.com.cn/hengyang/0/62/0/0/1/0/0/0.html,湖南,衡阳,东风悦达起亚,66936,湖南衡阳超强,400-830-6468,衡阳市蒸湘区杨柳汽贸城,https://dealer.autohome.com.cn/66936/#pvareaid=2113601,2020-02-20 16:55:31
https://dealer.autohome.com.cn/xiangtan/0/62/0/0/1/0/0/0.html,湖南,湘潭,东风悦达起亚,64698,湘潭市九亚,400-872-7682,湘潭市长潭西高速湘潭收费站西侧（湘潭九华示范区）,https://dealer.autohome.com.cn/64698/#pvareaid=2113601,2020-02-20 16:55:31
https://dealer.autohome.com.cn/nanjing/0/62/0/0/1/0/0/0.html,江苏,南京,东风悦达起亚,121025,南京黄埔起亚,400-866-8336,江苏省南京市玄武区珠江路659号（珠江路上海大众4S店旁）,https://dealer.autohome.com.cn/121025/#pvareaid=2113601,2020-02-20 16:55:31
https://dealer.autohome.com.cn/nanjing/0/62/0/0/1/0/0/0.html,江苏,南京,东风悦达起亚,2095654,南京德煜,400-866-1994,南京市江宁区东山汽车4S园临麒路23号,https://dealer.autohome.com.cn/2095654/#pvareaid=2113601,2020-02-20 16:55:31
https://dealer.autohome.com.cn/nanjing/0/62/0/0/1/0/0/0.html,江苏,南京,东风悦达起亚,64724,南京悦达骏驰,400-868-9510,江苏省南京市浦珠北路133号,https://dealer.autohome.com.cn/64724/#pvareaid=2113601,2020-02-20 16:55:31
https://dealer.autohome.com.cn/changsha/0/62/0/0/1/0/0/0.html,湖南,长沙,东风悦达起亚,7266,天润凯达汽车,400-866-1743,湖南省长沙市中南汽车世界物贸路55号,https://dealer.autohome.com.cn/7266/#pvareaid=2113601,2020-02-20 16:55:31
https://dealer.autohome.com.cn/enshi/0/62/0/0/1/0/0/0.html,湖北,恩施,东风悦达起亚,72617,恩施宏源起亚汽车,400-868-0872,湖北省恩施市金桂大道133号,https://dealer.autohome.com.cn/72617/#pvareaid=2113601,2020-02-20 16:55:31
https://dealer.autohome.com.cn/yichang/0/62/0/0/1/0/0/0.html,湖北,宜昌,东风悦达起亚,2029535,宜都远征,400-866-7331,宜都市姚家店镇姚家店村一组（民富汽车城内）,https://dealer.autohome.com.cn/2029535/#pvareaid=2113601,2020-02-20 16:55:31
https://dealer.autohome.com.cn/huanggang/0/62/0/0/1/0/0/0.html,湖北,黄冈,东风悦达起亚,2095723,黄冈道全安,400-868-0443,黄冈市黄州区南湖农场柞舟山,https://dealer.autohome.com.cn/2095723/#pvareaid=2113601,2020-02-20 16:55:31
https://dealer.autohome.com.cn/suizhou/0/62/0/0/1/0/0/0.html,湖北,随州,东风悦达起亚,82013,随州-东风悦达起亚4S店,400-872-8715,湖北省随州市经济开发区健民药厂对面,https://dealer.autohome.com.cn/82013/#pvareaid=2113601,2020-02-20 16:55:31
https://dealer.autohome.com.cn/xiaogan/0/62/0/0/1/0/0/0.html,湖北,孝感,东风悦达起亚,2067243,孝感元秀起亚汽车,400-618-3725,孝感市孝汉大道7号（东橙科技园）,https://dealer.autohome.com.cn/2067243/#pvareaid=2113601,2020-02-20 16:55:31
https://dealer.autohome.com.cn/jingmen/0/62/0/0/1/0/0/0.html,湖北,荆门,东风悦达起亚,2962,荆门大富豪起亚4S店,400-868-4298,湖北省荆门市虎牙关大道2-5号,https://dealer.autohome.com.cn/2962/#pvareaid=2113601,2020-02-20 16:55:31
https://dealer.autohome.com.cn/xiangyang/0/62/0/0/1/0/0/0.html,湖北,襄阳,东风悦达起亚,14059,襄樊金驹汽车,400-830-7004,襄阳市高新区邓城大道东段,https://dealer.autohome.com.cn/14059/#pvareaid=2113601,2020-02-20 16:55:32
https://dealer.autohome.com.cn/jingzhou/0/62/0/0/1/0/0/0.html,湖北,荆州,东风悦达起亚,2080504,荆州山野,400-872-7196,经济开发区东方大道强达化学对面悦达起亚4S店,https://dealer.autohome.com.cn/2080504/#pvareaid=2113601,2020-02-20 16:55:32
https://dealer.autohome.com.cn/zhumadian/0/62/0/0/1/0/0/0.html,河南,驻马店,东风悦达起亚,2093640,东风悦达起亚驻马店普泽店,400-868-9921,驻马店市汝河大道与中原大道交叉口北200米路东普泽起亚店,https://dealer.autohome.com.cn/2093640/#pvareaid=2113601,2020-02-20 16:55:32
https://dealer.autohome.com.cn/huangshi/0/62/0/0/1/0/0/0.html,湖北,黄石,东风悦达起亚,2100404,黄石市新世界志翔汽车,400-630-8337,黄石市黄金山开发区大棋路273号4S店,https://dealer.autohome.com.cn/2100404/#pvareaid=2113601,2020-02-20 16:55:32
https://dealer.autohome.com.cn/zhoukou/0/62/0/0/1/0/0/0.html,河南,周口,东风悦达起亚,2025581,周口乐达,400-868-1091,周口市川汇区大庆路与太清路交叉口东100米路北,https://dealer.autohome.com.cn/2025581/#pvareaid=2113601,2020-02-20 16:55:32
https://dealer.autohome.com.cn/zhoukou/0/62/0/0/1/0/0/0.html,河南,周口,东风悦达起亚,2048614,周口普泽,400-830-8884,周口市川汇区中州路与太昊路交叉口西北角,https://dealer.autohome.com.cn/2048614/#pvareaid=2113601,2020-02-20 16:55:32
https://dealer.autohome.com.cn/sanmenxia/0/62/0/0/1/0/0/0.html,河南,三门峡,东风悦达起亚,2092431,三门峡普泽汽车,400-872-5605,河南省三门峡市湖滨区交口乡腾飞汽车城1号,https://dealer.autohome.com.cn/2092431/#pvareaid=2113601,2020-02-20 16:55:32
https://dealer.autohome.com.cn/shangqiu/0/62/0/0/1/0/0/0.html,河南,商丘,东风悦达起亚,130048,商丘市铭悦汽车,400-868-0536,商丘市开发区北海路与星林路交汇处南200米路东,https://dealer.autohome.com.cn/130048/#pvareaid=2113601,2020-02-20 16:55:32
https://dealer.autohome.com.cn/shangqiu/0/62/0/0/1/0/0/0.html,河南,商丘,东风悦达起亚,14070,商丘佳瑞东风悦达起亚4s店,400-872-1932,商丘市金桥路与民主路交叉口北800米路东,https://dealer.autohome.com.cn/14070/#pvareaid=2113601,2020-02-20 16:55:32
https://dealer.autohome.com.cn/wuhan/0/62/0/0/1/0/0/0.html,湖北,武汉,东风悦达起亚,2103068,武汉峻能汽车销售有限公司,400-866-7821,武汉经济技术开发区东风大道1588号厂房三,https://dealer.autohome.com.cn/2103068/#pvareaid=2113601,2020-02-20 16:55:32
https://dealer.autohome.com.cn/wuhan/0/62/0/0/1/0/0/0.html,湖北,武汉,东风悦达起亚,118619,武汉励嘉汽车,400-830-4057,武汉市洪山区和平乡铁机村2号附3号（徐东团结大道与二环线交汇处铁机汽车展销中心内）,https://dealer.autohome.com.cn/118619/#pvareaid=2113601,2020-02-20 16:55:32
https://dealer.autohome.com.cn/wuhan/0/62/0/0/1/0/0/0.html,湖北,武汉,东风悦达起亚,11538,武汉悦鼎,400-830-4692,武汉市洪山区南湖大道68号（华中农业大学北门附近）,https://dealer.autohome.com.cn/11538/#pvareaid=2113601,2020-02-20 16:55:32
https://dealer.autohome.com.cn/luohe/0/62/0/0/1/0/0/0.html,河南,漯河,东风悦达起亚,2076002,润强起亚,400-872-9464,漯河市源汇区漯舞路与107国道交叉口西600米,https://dealer.autohome.com.cn/2076002/#pvareaid=2113601,2020-02-20 16:55:32
https://dealer.autohome.com.cn/nanyang/0/62/0/0/1/0/0/0.html,河南,南阳,东风悦达起亚,2077013,南阳兴源,400-872-5291,南阳市BII路与经13路交叉口（双铺超限站对面泰祥汽车城内）,https://dealer.autohome.com.cn/2077013/#pvareaid=2113601,2020-02-20 16:55:32
https://dealer.autohome.com.cn/nanyang/0/62/0/0/1/0/0/0.html,河南,南阳,东风悦达起亚,100630,南阳天翊起亚,400-897-1429,南阳市北京大道北段气象站北500米路东,https://dealer.autohome.com.cn/100630/#pvareaid=2113601,2020-02-20 16:55:32
https://dealer.autohome.com.cn/pingdingshan/0/62/0/0/1/0/0/0.html,河南,平顶山,东风悦达起亚,2095284,平顶山广佳起亚,400-961-5901,建设路与许南路交叉口东50米路南,https://dealer.autohome.com.cn/2095284/#pvareaid=2113601,2020-02-20 16:55:32
https://dealer.autohome.com.cn/xuchang/0/62/0/0/1/0/0/0.html,河南,许昌,东风悦达起亚,121256,许昌正达起亚4S店,400-872-9723,许昌市许由路与延安路交叉路口向东300米路北,https://dealer.autohome.com.cn/121256/#pvareaid=2113601,2020-02-20 16:55:32
https://dealer.autohome.com.cn/xuchang/0/62/0/0/1/0/0/0.html,河南,许昌,东风悦达起亚,2094851,许昌许润起亚,400-961-4079,许昌市劳动路与北外环交叉口东北角,https://dealer.autohome.com.cn/2094851/#pvareaid=2113601,2020-02-20 16:55:32
https://dealer.autohome.com.cn/puyang/0/62/0/0/1/0/0/0.html,河南,濮阳,东风悦达起亚,2077006,濮阳瑞晨,400-872-0057,濮阳市中原路与濮水路交叉口东南角,https://dealer.autohome.com.cn/2077006/#pvareaid=2113601,2020-02-20 16:55:32
https://dealer.autohome.com.cn/xinxiang/0/62/0/0/1/0/0/0.html,河南,新乡,东风悦达起亚,2094569,新乡市佳新,400-868-7996,新乡县新原路与107国道交汇处（107国际汽车物流园）,https://dealer.autohome.com.cn/2094569/#pvareaid=2113601,2020-02-20 16:55:32
https://dealer.autohome.com.cn/luoyang/0/62/0/0/1/0/0/0.html,河南,洛阳,东风悦达起亚,2027282,洛阳普华悦达起亚,400-868-7056,洛阳市洛龙区政和路1号（向西200米）,https://dealer.autohome.com.cn/2027282/#pvareaid=2113601,2020-02-20 16:55:32
https://dealer.autohome.com.cn/anyang/0/62/0/0/1/0/0/0.html,河南,安阳,东风悦达起亚,2022178,安阳市悦睿起亚,400-868-5854,安阳市光明路与弦歌大道交叉口豫北汽车市场,https://dealer.autohome.com.cn/2022178/#pvareaid=2113601,2020-02-20 16:55:32
https://dealer.autohome.com.cn/chengde/0/62/0/0/1/0/0/0.html,河北,承德,东风悦达起亚,2104433,伟航起亚,400-897-3019,河北省承德市双滦去双塔山镇单塔子村松狮线南侧狮子园路14号,https://dealer.autohome.com.cn/2104433/#pvareaid=2113601,2020-02-20 16:55:32
https://dealer.autohome.com.cn/kaifeng/0/62/0/0/1/0/0/0.html,河南,开封,东风悦达起亚,2002047,开封万宝麒麟起亚,400-868-0908,开封祥符区310国道与园区路交叉口向北200米路西（原开封县新人民检察院对面）,https://dealer.autohome.com.cn/2002047/#pvareaid=2113601,2020-02-20 16:55:32
https://dealer.autohome.com.cn/cangzhou/0/62/0/0/1/0/0/0.html,河北,沧州,东风悦达起亚,2100298,沧州华锐起亚店,400-866-8350,河北省沧州市沧州经济开发区石港路北赵家坟村,https://dealer.autohome.com.cn/2100298/#pvareaid=2113601,2020-02-20 16:55:32
https://dealer.autohome.com.cn/cangzhou/0/62/0/0/1/0/0/0.html,河北,沧州,东风悦达起亚,2005654,黄骅骅腾起亚4S店,400-872-2495,黄骅市城西老307国道北侧南王曼村南,https://dealer.autohome.com.cn/2005654/#pvareaid=2113601,2020-02-20 16:55:32
https://dealer.autohome.com.cn/cangzhou/0/62/0/0/1/0/0/0.html,河北,沧州,东风悦达起亚,2093744,东风悦达起亚任丘宝悦专营店,400-830-8364,任丘市西环菜市场对面,https://dealer.autohome.com.cn/2093744/#pvareaid=2113601,2020-02-20 16:55:32
https://dealer.autohome.com.cn/langfang/0/62/0/0/1/0/0/0.html,河北,廊坊,东风悦达起亚,10115,廊坊悦众信达,400-872-1447,廊坊市东环路19号,https://dealer.autohome.com.cn/10115/#pvareaid=2113601,2020-02-20 16:55:32
https://dealer.autohome.com.cn/langfang/0/62/0/0/1/0/0/0.html,河北,廊坊,东风悦达起亚,2016942,廊坊博鼎起亚4S店,400-872-3811,廊坊市广阳区廊万路189号（长征驾校西200米）,https://dealer.autohome.com.cn/2016942/#pvareaid=2113601,2020-02-20 16:55:32
https://dealer.autohome.com.cn/zhengzhou/0/62/0/0/1/0/0/0.html,河南,郑州,东风悦达起亚,2104453,河南悦胜,400-619-2308,河南省郑州市市辖区郑东新区白沙镇郑汴物流通道与康庄路交叉口庞大汽车园D1区10号,https://dealer.autohome.com.cn/2104453/#pvareaid=2113601,2020-02-20 16:55:32
https://dealer.autohome.com.cn/haerbin/0/62/0/0/1/0/0/0.html,黑龙江,哈尔滨,东风悦达起亚,4618,黑龙江亿发起亚4S店,400-830-2452,哈尔滨市道里区机场路12号,https://dealer.autohome.com.cn/4618/#pvareaid=2113601,2020-02-20 16:55:33
https://dealer.autohome.com.cn/baoding/0/62/0/0/1/0/0/0.html,河北,保定,东风悦达起亚,2078441,保定沁悦起亚4S店,400-872-0180,保定市莲池区长城南大街1485号世纪汽车城商铺,https://dealer.autohome.com.cn/2078441/#pvareaid=2113601,2020-02-20 16:55:33
https://dealer.autohome.com.cn/tangshan/0/62/0/0/1/0/0/0.html,河北,唐山,东风悦达起亚,3546,唐山复兴路起亚专营店,400-868-8256,唐山市路南区复兴路和吉祥路交叉口南行500米（路南汽车园东侧）,https://dealer.autohome.com.cn/3546/#pvareaid=2113601,2020-02-20 16:55:33
https://dealer.autohome.com.cn/baoding/0/62/0/0/1/0/0/0.html,河北,保定,东风悦达起亚,3935,高开区广龙店清苑庞大店,400-868-3310,保定市高开区创业路汽车园369号,https://dealer.autohome.com.cn/3935/#pvareaid=2113601,2020-02-20 16:55:33
https://dealer.autohome.com.cn/baoding/0/62/0/0/1/0/0/0.html,河北,保定,东风悦达起亚,2020221,保定致悦起亚店,400-830-6049,保定市北市区东金庄乡付村,https://dealer.autohome.com.cn/2020221/#pvareaid=2113601,2020-02-20 16:55:33
https://dealer.autohome.com.cn/baoding/0/62/0/0/1/0/0/0.html,河北,保定,东风悦达起亚,128698,定州市双悦起亚4S店,400-866-8532,河北省定州市定曲路保定市工业学校西行800米路北,https://dealer.autohome.com.cn/128698/#pvareaid=2113601,2020-02-20 16:55:33
https://dealer.autohome.com.cn/qinhuangdao/0/62/0/0/1/0/0/0.html,河北,秦皇岛,东风悦达起亚,124945,秦皇岛凯通东风悦达起亚,400-830-5232,秦皇岛市经济开发区秦皇西大街293号开发区高速口,https://dealer.autohome.com.cn/124945/#pvareaid=2113601,2020-02-20 16:55:33
https://dealer.autohome.com.cn/wuwei/0/62/0/0/1/0/0/0.html,甘肃,武威,东风悦达起亚,2029577,武威铭泰,400-868-6064,甘肃省武威市凉州区天马大道城东工业园区,https://dealer.autohome.com.cn/2029577/#pvareaid=2113601,2020-02-20 16:55:33
https://dealer.autohome.com.cn/handan/0/62/0/0/1/0/0/0.html,河北,邯郸,东风悦达起亚,73178,北环起亚华旗公司,400-872-2352,丛台区北环路与新兴大街交叉口东行220米路南,https://dealer.autohome.com.cn/73178/#pvareaid=2113601,2020-02-20 16:55:33
https://dealer.autohome.com.cn/xingyishi/0/62/0/0/1/0/0/0.html,贵州,兴义市,东风悦达起亚,72497,东风悦达起亚林富汽车,400-872-6747,贵州省兴义市坪东大道95号（坪东广场正对面）,https://dealer.autohome.com.cn/72497/#pvareaid=2113601,2020-02-20 16:55:33
https://dealer.autohome.com.cn/lanzhou/0/62/0/0/1/0/0/0.html,甘肃,兰州,东风悦达起亚,14062,兰州悦丰起亚4S店,400-830-0242,兰州市七里河区南滨河西路181号,https://dealer.autohome.com.cn/14062/#pvareaid=2113601,2020-02-20 16:55:33
https://dealer.autohome.com.cn/lanzhou/0/62/0/0/1/0/0/0.html,甘肃,兰州,东风悦达起亚,7251,甘肃宝通汽车,400-830-2635,甘肃省兰州市城关区109国道八公里处,https://dealer.autohome.com.cn/7251/#pvareaid=2113601,2020-02-20 16:55:33
https://dealer.autohome.com.cn/shijiazhuang/0/62/0/0/1/0/0/0.html,河北,石家庄,东风悦达起亚,124412,河北天巧起亚4S店,400-997-3451,石家庄市长安区北二环东路86号（北二环与建华大街交口东行800米路南国际汽车园）,https://dealer.autohome.com.cn/124412/#pvareaid=2113601,2020-02-20 16:55:33
https://dealer.autohome.com.cn/liupanshui/0/62/0/0/1/0/0/0.html,贵州,六盘水,东风悦达起亚,2101768,六盘水东风悦达起亚4S店,400-868-1529,贵州省六盘水市红桥新区会展中心一期104铺面,https://dealer.autohome.com.cn/2101768/#pvareaid=2113601,2020-02-20 16:55:33
https://dealer.autohome.com.cn/zunyi/0/62/0/0/1/0/0/0.html,贵州,遵义,东风悦达起亚,10132,遵义白天鹅起亚4S店,400-868-6954,遵义县龙坑镇黔北国际汽车博览城,https://dealer.autohome.com.cn/10132/#pvareaid=2113601,2020-02-20 16:55:33
https://dealer.autohome.com.cn/tongren/0/62/0/0/1/0/0/0.html,贵州,铜仁,东风悦达起亚,121770,铜仁市华新,400-872-2661,贵州省铜仁地区铜仁市万山区谢桥新铜大高速南出口处500米,https://dealer.autohome.com.cn/121770/#pvareaid=2113601,2020-02-20 16:55:33
https://dealer.autohome.com.cn/guiyang/0/62/0/0/1/0/0/0.html,贵州,贵阳,东风悦达起亚,7256,贵州华通汽车,400-830-2624,贵州省贵阳市金阳南路118号,https://dealer.autohome.com.cn/7256/#pvareaid=2113601,2020-02-20 16:55:33
https://dealer.autohome.com.cn/guiyang/0/62/0/0/1/0/0/0.html,贵州,贵阳,东风悦达起亚,2094905,贵州宝驰顺达,400-961-0314,贵州省贵阳市清镇市物流园区乘用车一号宗地1-7号,https://dealer.autohome.com.cn/2094905/#pvareaid=2113601,2020-02-20 16:55:33
https://dealer.autohome.com.cn/hechi/0/62/0/0/1/0/0/0.html,广西,河池,东风悦达起亚,2104526,河池市昌华汽车,400-872-3063,河池市百旺开发区,https://dealer.autohome.com.cn/2104526/#pvareaid=2113601,2020-02-20 16:55:33
https://dealer.autohome.com.cn/guiyang/0/62/0/0/1/0/0/0.html,贵州,贵阳,东风悦达起亚,126653,贵州华亚新,400-897-1412,贵州省贵阳市花溪区孟关国际汽贸城,https://dealer.autohome.com.cn/126653/#pvareaid=2113601,2020-02-20 16:55:33
https://dealer.autohome.com.cn/baise/0/62/0/0/1/0/0/0.html,广西,百色,东风悦达起亚,119830,百色润通起亚4s店,400-868-0317,百色市城东大道大华厂路口（联润汽贸园内）,https://dealer.autohome.com.cn/119830/#pvareaid=2113601,2020-02-20 16:55:33
https://dealer.autohome.com.cn/yu_lin/0/62/0/0/1/0/0/0.html,广西,玉林,东风悦达起亚,2028035,玉林骏利起亚4S店,400-868-4337,玉林市正泰路1号,https://dealer.autohome.com.cn/2028035/#pvareaid=2113601,2020-02-20 16:55:33
https://dealer.autohome.com.cn/jieyang/0/62/0/0/1/0/0/0.html,广东,揭阳,东风悦达起亚,4725,揭阳市荣通,400-830-4398,揭阳市环市北路与十一号街交界处,https://dealer.autohome.com.cn/4725/#pvareaid=2113601,2020-02-20 16:55:33
https://dealer.autohome.com.cn/zhongshan/0/62/0/0/1/0/0/0.html,广东,中山,东风悦达起亚,2029868,中山悦雅起亚,400-868-0142,中山市西区沙朗彩虹大道143号（中顺洁柔对面）,https://dealer.autohome.com.cn/2029868/#pvareaid=2113601,2020-02-20 16:55:33
https://dealer.autohome.com.cn/zhongshan/0/62/0/0/1/0/0/0.html,广东,中山,东风悦达起亚,5385,中山市永奥,400-830-9857,中山市火炬开发区江陵西路53号一楼之三,https://dealer.autohome.com.cn/5385/#pvareaid=2113601,2020-02-20 16:55:33
https://dealer.autohome.com.cn/qinzhou/0/62/0/0/1/0/0/0.html,广西,钦州,东风悦达起亚,113314,钦州东源,400-868-4674,钦州市北部湾大道大润发往北直行500米处（右侧）,https://dealer.autohome.com.cn/113314/#pvareaid=2113601,2020-02-20 16:55:33
https://dealer.autohome.com.cn/guilin/0/62/0/0/1/0/0/0.html,广西,桂林,东风悦达起亚,124222,桂林新旗亚起亚4S店,400-868-2550,桂林市灵川县八里街大西南汽车城起亚汽车5S店,https://dealer.autohome.com.cn/124222/#pvareaid=2113601,2020-02-20 16:55:33
https://dealer.autohome.com.cn/dongguan/0/62/0/0/1/0/0/0.html,广东,东莞,东风悦达起亚,13611,东莞东众起亚4S店,400-897-2097,东莞市塘厦镇塘厦大道北223号,https://dealer.autohome.com.cn/13611/#pvareaid=2113601,2020-02-20 16:55:33
https://dealer.autohome.com.cn/dongguan/0/62/0/0/1/0/0/0.html,广东,东莞,东风悦达起亚,124441,东莞永泰,400-897-0106,广东省东莞市虎门镇莞太大道白沙路段248号虎门高铁站旁,https://dealer.autohome.com.cn/124441/#pvareaid=2113601,2020-02-20 16:55:33
https://dealer.autohome.com.cn/dongguan/0/62/0/0/1/0/0/0.html,广东,东莞,东风悦达起亚,4217,东莞南城永濠起亚,400-830-2957,东莞市南城区莞太大道周溪路段208号 周溪公交站旁,https://dealer.autohome.com.cn/4217/#pvareaid=2113601,2020-02-20 16:55:33
https://dealer.autohome.com.cn/dongguan/0/62/0/0/1/0/0/0.html,广东,东莞,东风悦达起亚,4214,东莞市汇天源起亚4S店,400-897-2418,东莞市寮步国际汽车城A-01-05,https://dealer.autohome.com.cn/4214/#pvareaid=2113601,2020-02-20 16:55:33
https://dealer.autohome.com.cn/dongguan/0/62/0/0/1/0/0/0.html,广东,东莞,东风悦达起亚,2099499,俊众起亚石排店,400-868-5464,广东省东莞市石排镇石排大道西103号102室,https://dealer.autohome.com.cn/2099499/#pvareaid=2113601,2020-02-20 16:55:33
https://dealer.autohome.com.cn/qingyuan/0/62/0/0/1/0/0/0.html,广东,清远,东风悦达起亚,13613,清远骏飞汽车,400-866-7470,广东省清远市新城B28号区奇鸿汽车城5号,https://dealer.autohome.com.cn/13613/#pvareaid=2113601,2020-02-20 16:55:33
https://dealer.autohome.com.cn/nanning/0/62/0/0/1/0/0/0.html,广西,南宁,东风悦达起亚,7254,南宁通惠,400-830-3701,广西南宁市江南区白沙大道69号,https://dealer.autohome.com.cn/7254/#pvareaid=2113601,2020-02-20 16:55:33
https://dealer.autohome.com.cn/nanning/0/62/0/0/1/0/0/0.html,广西,南宁,东风悦达起亚,2042940,广西普鑫泽源,400-830-2837,沙井大道92号,https://dealer.autohome.com.cn/2042940/#pvareaid=2113601,2020-02-20 16:55:33
https://dealer.autohome.com.cn/nanning/0/62/0/0/1/0/0/0.html,广西,南宁,东风悦达起亚,123923,广汇东风悦达起亚弘顺店,400-872-5296,广西南宁市秀厢大道199号金源汽车城内,https://dealer.autohome.com.cn/123923/#pvareaid=2113601,2020-02-20 16:55:33
https://dealer.autohome.com.cn/chaozhou/0/62/0/0/1/0/0/0.html,广东,潮州,东风悦达起亚,2095648,潮州市荣通汽车,400-868-8367,潮州市潮安区浮洋镇乌洋村南厝田片,https://dealer.autohome.com.cn/2095648/#pvareaid=2113601,2020-02-20 16:55:33
https://dealer.autohome.com.cn/huizhou/0/62/0/0/1/0/0/0.html,广东,惠州,东风悦达起亚,4664,惠州辉达,400-872-6883,广东省惠州市惠城区河南岸汽车大市场内辉达起亚,https://dealer.autohome.com.cn/4664/#pvareaid=2113601,2020-02-20 16:55:33
https://dealer.autohome.com.cn/zhaoqing/0/62/0/0/1/0/0/0.html,广东,肇庆,东风悦达起亚,2100135,肇庆凯信起亚4s店,400-868-9423,肇庆市迎宾大道北侧（展厅一）A区之二,https://dealer.autohome.com.cn/2100135/#pvareaid=2113601,2020-02-20 16:55:34
https://dealer.autohome.com.cn/yangjiang/0/62/0/0/1/0/0/0.html,广东,阳江,东风悦达起亚,13615,阳江德诚起亚,400-868-9391,阳江市华侨新村8路69号,https://dealer.autohome.com.cn/13615/#pvareaid=2113601,2020-02-20 16:55:34
https://dealer.autohome.com.cn/tianjin/0/62/0/0/1/0/0/0.html,天津,天津,东风悦达起亚,97672,奥嘉起亚,400-897-0181,天津市西青区中北镇卉康路5号,https://dealer.autohome.com.cn/97672/#pvareaid=2113601,2020-02-20 16:55:34
https://dealer.autohome.com.cn/tianjin/0/62/0/0/1/0/0/0.html,天津,天津,东风悦达起亚,2019837,天津宇东达亚,400-897-4002,天津市静海开发区金海道2号,https://dealer.autohome.com.cn/2019837/#pvareaid=2113601,2020-02-20 16:55:34
https://dealer.autohome.com.cn/shanghai/0/62/0/0/1/0/0/0.html,上海,上海,东风悦达起亚,15813,上海起亚交运,400-830-3795,徐汇区龙吴路908号(上海植物园对面）,https://dealer.autohome.com.cn/15813/#pvareaid=2113601,2020-02-20 16:55:34
https://dealer.autohome.com.cn/shanghai/0/62/0/0/1/0/0/0.html,上海,上海,东风悦达起亚,1570,上海绅起起亚4S店,400-872-1723,上海市普陀区真南路3847号,https://dealer.autohome.com.cn/1570/#pvareaid=2113601,2020-02-20 16:55:34
https://dealer.autohome.com.cn/shanghai/0/62/0/0/1/0/0/0.html,上海,上海,东风悦达起亚,2091108,上海联兴起亚,400-868-3040,上海市青浦区北青公路9635号1幢,https://dealer.autohome.com.cn/2091108/#pvareaid=2113601,2020-02-20 16:55:34
https://dealer.autohome.com.cn/shanghai/0/62/0/0/1/0/0/0.html,上海,上海,东风悦达起亚,98565,宝通赢汽车,400-897-3419,上海市宝山区月罗公路2255号（近：罗店镇美兰湖）,https://dealer.autohome.com.cn/98565/#pvareaid=2113601,2020-02-20 16:55:34
https://dealer.autohome.com.cn/shanghai/0/62/0/0/1/0/0/0.html,上海,上海,东风悦达起亚,2002735,上海申悦汽车,400-830-5646,上海市金山区金山大道4298弄39号,https://dealer.autohome.com.cn/2002735/#pvareaid=2113601,2020-02-20 16:55:34
https://dealer.autohome.com.cn/shanghai/0/62/0/0/1/0/0/0.html,上海,上海,东风悦达起亚,1572,上海红悦汽车,400-872-7109,浦东新区沪南公路4789弄3幢304-311号/浦东新区康桥东路298号/闵行区吴中路1368号,https://dealer.autohome.com.cn/1572/#pvareaid=2113601,2020-02-20 16:55:34
https://dealer.autohome.com.cn/beijing/0/62/0/0/1/0/0/0.html,北京,北京,东风悦达起亚,123223,北京汉青鸿宇,400-872-2869,北京市房山区城关镇顾八路一区2号（城关办事处旁）,https://dealer.autohome.com.cn/123223/#pvareaid=2113601,2020-02-20 16:55:34
https://dealer.autohome.com.cn/beijing/0/62/0/0/1/0/0/0.html,北京,北京,东风悦达起亚,73584,北京勤华瑞达,400-872-8681,北京市朝阳区姚家园路甲1号（东方基业汽车城内18号店）,https://dealer.autohome.com.cn/73584/#pvareaid=2113601,2020-02-20 16:55:34
https://dealer.autohome.com.cn/beijing/0/62/0/0/1/0/0/0.html,北京,北京,东风悦达起亚,2020877,北京雅胜天成汽车,400-872-1993,北京市丰台区小屯双林东路（双林苑小区东门对面）,https://dealer.autohome.com.cn/2020877/#pvareaid=2113601,2020-02-20 16:55:34
https://dealer.autohome.com.cn/beijing/0/62/0/0/1/0/0/0.html,北京,北京,东风悦达起亚,2029595,北京鑫达汇城,400-930-0443,北京市密云区十里堡镇京密公路北侧十里堡村（彩虹门北50米）,https://dealer.autohome.com.cn/2029595/#pvareaid=2113601,2020-02-20 16:55:34
https://dealer.autohome.com.cn/beijing/0/62/0/0/1/0/0/0.html,北京,北京,东风悦达起亚,2003473,北京广大行,400-868-1459,北京市朝阳区南四环东路49号（十八里店南桥与小红门桥之间路北）,https://dealer.autohome.com.cn/2003473/#pvareaid=2113601,2020-02-20 16:55:34
https://dealer.autohome.com.cn/chongqing/0/62/0/0/1/0/0/0.html,重庆,重庆,东风悦达起亚,11282,现代高新汽车,400-830-2471,重庆南坪经开区白鹤路100号,https://dealer.autohome.com.cn/11282/#pvareaid=2113601,2020-02-20 16:55:34
https://dealer.autohome.com.cn/chongqing/0/62/0/0/1/0/0/0.html,重庆,重庆,东风悦达起亚,125724,重庆协信宏亚,400-830-1297,重庆市八公里渝南分流道协信汽车城1号楼,https://dealer.autohome.com.cn/125724/#pvareaid=2113601,2020-02-20 16:55:34
https://dealer.autohome.com.cn/chongqing/0/62/0/0/1/0/0/0.html,重庆,重庆,东风悦达起亚,82703,广汇汽博韩亚,400-830-2676,重庆市北部新区汽博中心金渝大道９９号附６号,https://dealer.autohome.com.cn/82703/#pvareaid=2113601,2020-02-20 16:55:34
https://dealer.autohome.com.cn/chongqing/0/62/0/0/1/0/0/0.html,重庆,重庆,东风悦达起亚,124787,重庆康安起悦汽车,400-897-3693,重庆市永川区昌州大道中段629号 （水韵书香斜对面）,https://dealer.autohome.com.cn/124787/#pvareaid=2113601,2020-02-20 16:55:34
